NORAD_CAT_ID,OBJECT_NAME,OBJECT_TYPE,EPOCH,MEAN_MOTION,ECCENTRICITY,INCLINATION,RA_OF_ASC_NODE,ARG_OF_PERICENTER,MEAN_ANOMALY,BSTAR,MEAN_MOTION_DOT,MEAN_MOTION_DDOT,TLE_LINE0,TLE_LINE1,TLE_LINE2,SEMIMAJOR_AXIS,PERIOD,APOGEE,PERIGEE,DECAYED
51996.0,STARLINK-3538,PAYLOAD,2023-08-15 10:19:59,15.08842207,0.0001156,53.2154,266.6423,84.3834,275.729,8.7546e-05,1.106e-05,0.0,0 STARLINK-3538,1 51996U 22025AS  23227.43055117  .00001106  00000-0  87546-4 0  9995,2 51996  53.2154 266.6423 0001156  84.3834 275.7290 15.08842207 80944,6917.874,95.437,540.538,538.939,0.0
51996.0,STARLINK-3538,PAYLOAD,2023-08-16 02:13:51,15.08838821,0.0001091,53.2163,263.6683,91.8847,268.227,3.7777e-05,3.13e-06,0.0,0 STARLINK-3538,1 51996U 22025AS  23228.09295705  .00000313  00000-0  37777-4 0  9997,2 51996  53.2163 263.6683 0001091  91.8847 268.2270 15.08838821 81048,6917.884,95.438,540.504,538.994,0.0
51996.0,STARLINK-3538,PAYLOAD,2023-08-17 08:26:10,15.08844868,0.0001225,53.2163,258.0186,83.9727,276.1405,0.00010378,1.364e-05,0.0,0 STARLINK-3538,1 51996U 22025AS  23229.35151181  .00001364  00000-0  10378-3 0  9990,2 51996  53.2163 258.0186 0001225  83.9727 276.1405 15.08844868 81239,6917.866,95.437,540.578,538.883,0.0
51996.0,STARLINK-3538,PAYLOAD,2023-08-18 01:55:25,15.08838288,0.0001355,53.2167,254.748,82.8693,277.2453,9.8627e-05,1.282e-05,0.0,0 STARLINK-3538,1 51996U 22025AS  23230.08015669  .00001282  00000-0  98627-4 0  9995,2 51996  53.2167 254.7480 0001355  82.8693 277.2453 15.08838288 81343,6917.886,95.438,540.688,538.813,0.0
51996.0,STARLINK-3538,PAYLOAD,2023-08-19 08:07:44,15.08843189,0.0001282,53.2164,249.0956,99.8621,260.2516,3.4314e-05,2.58e-06,0.0,0 STARLINK-3538,1 51996U 22025AS  23231.33871385  .00000258  00000-0  34314-4 0  9994,2 51996  53.2164 249.0956 0001282  99.8621 260.2516 15.08843189 81532,6917.871,95.437,540.623,538.849,0.0
51996.0,STARLINK-3538,PAYLOAD,2023-08-20 00:01:36,15.08833301,0.0001318,53.2166,246.1225,95.5192,264.5951,2.8969e-05,1.73e-06,0.0,0 STARLINK-3538,1 51996U 22025AS  23232.00112054  .00000173  00000-0  28969-4 0  9995,2 51996  53.2166 246.1225 0001318  95.5192 264.5951 15.08833301 81633,6917.901,95.438,540.678,538.854,0.0
51996.0,STARLINK-3538,PAYLOAD,2023-08-20 12:44:41,15.08839013,0.000135,53.2167,243.7437,98.5207,261.5938,4.5816e-05,4.41e-06,0.0,0 STARLINK-3538,1 51996U 22025AS  23232.53103713  .00000441  00000-0  45816-4 0  9993,2 51996  53.2167 243.7437 0001350  98.5207 261.5938 15.08839013 81715,6917.883,95.438,540.682,538.814,0.0
51996.0,STARLINK-3538,PAYLOAD,2023-08-21 23:43:11,15.08837537,0.0001246,53.2164,237.2024,88.7344,271.3791,1.9134e-05,1.7e-07,0.0,0 STARLINK-3538,1 51996U 22025AS  23233.98832195  .00000017  00000-0  19134-4 0  9999,2 51996  53.2164 237.2024 0001246  88.7344 271.3791 15.08837537 81938,6917.888,95.438,540.615,538.891,0.0
51996.0,STARLINK-3538,PAYLOAD,2023-08-24 08:57:03,15.08843513,0.0001365,53.2163,226.4958,97.8019,262.3128,5.3315e-05,5.61e-06,0.0,0 STARLINK-3538,1 51996U 22025AS  23236.37295975  .00000561  00000-0  53315-4 0  9997,2 51996  53.2163 226.4958 0001365  97.8019 262.3128 15.08843513 80771,6917.87,95.437,540.679,538.79,0.0
51996.0,STARLINK-3538,PAYLOAD,2023-08-25 02:26:18,15.08841061,0.0001498,53.2169,223.2244,106.976,253.1396,4.516e-05,4.31e-06,0.0,0 STARLINK-3538,1 51996U 22025AS  23237.10160087  .00000431  00000-0  45160-4 0  9999,2 51996  53.2169 223.2244 0001498 106.9760 253.1396 15.08841061 82405,6917.877,95.437,540.778,538.706,0.0
51996.0,STARLINK-3538,PAYLOAD,2023-08-25 10:23:13,15.08844921,0.0001414,53.2163,221.737,104.2984,255.8165,7.3563e-05,8.83e-06,0.0,0 STARLINK-3538,1 51996U 22025AS  23237.43279710  .00000883  00000-0  73563-4 0  9998,2 51996  53.2163 221.7370 0001414 104.2984 255.8165 15.08844921 80936,6917.865,95.437,540.709,538.752,0.0
51996.0,STARLINK-3538,PAYLOAD,2023-08-26 08:38:37,15.08839881,0.0001481,53.2168,217.5736,107.0451,253.0704,2.0757e-05,4.2e-07,0.0,0 STARLINK-3538,1 51996U 22025AS  23238.36016159  .00000042  00000-0  20757-4 0  9991,2 51996  53.2168 217.5736 0001481 107.0451 253.0704 15.08839881 82596,6917.881,95.438,540.77,538.721,0.0
51996.0,STARLINK-3538,PAYLOAD,2023-08-27 08:29:25,15.08838812,0.0001435,53.2172,213.114,95.3142,264.8014,1.3784e-05,-6.9e-07,0.0,0 STARLINK-3538,1 51996U 22025AS  23239.35376451 -.00000069  00000-0  13784-4 0  9997,2 51996  53.2172 213.1140 0001435  95.3142 264.8014 15.08838812 81223,6917.884,95.438,540.742,538.756,0.0
51996.0,STARLINK-3538,PAYLOAD,2023-08-28 01:58:39,15.08837196,0.0001407,53.2175,209.8432,89.2166,270.8988,4.6088e-05,4.46e-06,0.0,0 STARLINK-3538,1 51996U 22025AS  23240.08240611  .00000446  00000-0  46088-4 0  9998,2 51996  53.2175 209.8432 0001407  89.2166 270.8988 15.08837196 82850,6917.889,95.438,540.727,538.781,0.0
51996.0,STARLINK-3538,PAYLOAD,2023-08-28 21:03:17,15.08833466,0.000142,53.2172,206.2779,93.475,266.6404,5.144e-05,5.31e-06,0.0,0 STARLINK-3538,1 51996U 22025AS  23240.87728944  .00000531  00000-0  51440-4 0  9998,2 51996  53.2172 206.2779 0001420  93.4750 266.6404 15.08833466 81450,6917.9,95.438,540.748,538.783,0.0
51996.0,STARLINK-3538,PAYLOAD,2023-08-29 06:35:36,15.08836156,0.0001415,53.2172,204.4924,88.5691,271.5463,3.3227e-05,2.41e-06,0.0,0 STARLINK-3538,1 51996U 22025AS  23241.27473030  .00000241  00000-0  33227-4 0  9997,2 51996  53.2172 204.4924 0001415  88.5691 271.5463 15.08836156 83030,6917.892,95.438,540.736,538.778,0.0
51996.0,STARLINK-3538,PAYLOAD,2023-08-30 08:01:46,15.08841687,0.0001739,53.2175,199.7345,93.5462,266.5729,-2.4756e-05,-6.82e-06,0.0,0 STARLINK-3538,1 51996U 22025AS  23242.33457121 -.00000682  00000-0 -24756-4 0  9996,2 51996  53.2175 199.7345 0001739  93.5462 266.5729 15.08841687 83198,6917.875,95.437,540.943,538.537,0.0
51996.0,STARLINK-3538,PAYLOAD,2023-08-30 14:23:19,15.0884074,0.0001395,53.2173,198.5449,89.8299,270.2853,1.3334e-05,-7.6e-07,0.0,0 STARLINK-3538,1 51996U 22025AS  23242.59953051 -.00000076  00000-0  13334-4 0  9993,2 51996  53.2173 198.5449 0001395  89.8299 270.2853 15.08840740 81717,6917.878,95.438,540.708,538.778,0.0
51996.0,STARLINK-3538,PAYLOAD,2023-08-31 06:17:10,15.08843606,0.0001393,53.217,195.5715,87.2051,272.9101,0.00010095,1.319e-05,0.0,0 STARLINK-3538,1 51996U 22025AS  23243.26192629  .00001319  00000-0  10095-3 0  9994,2 51996  53.2170 195.5715 0001393  87.2051 272.9101 15.08843606 81813,6917.869,95.437,540.698,538.771,0.0
51996.0,STARLINK-3538,PAYLOAD,2023-09-01 02:57:12,15.08834149,0.0001402,53.217,191.7059,85.9278,274.1875,1.8262e-05,3e-08,0.0,0 STARLINK-3538,1 51996U 22025AS  23244.12305632  .00000003  00000-0  18262-4 0  9994,2 51996  53.2170 191.7059 0001402  85.9278 274.1875 15.08834149 83466,6917.898,95.438,540.733,538.793,0.0
51996.0,STARLINK-3538,PAYLOAD,2023-09-01 14:04:53,15.08842044,0.0001604,53.2175,189.6243,84.0923,276.0252,2.7365e-05,1.48e-06,0.0,0 STARLINK-3538,1 51996U 22025AS  23244.58673198  .00000148  00000-0  27365-4 0  9993,2 51996  53.2175 189.6243 0001604  84.0923 276.0252 15.08842044 82016,6917.874,95.437,540.849,538.63,0.0
51996.0,STARLINK-3538,PAYLOAD,2023-09-01 20:26:25,15.08843554,0.000101,53.2176,188.4359,80.3634,279.7472,9.0935e-05,1.16e-05,0.0,0 STARLINK-3538,1 51996U 22025AS  23244.85168634  .00001160  00000-0  90935-4 0  9995,2 51996  53.2176 188.4359 0001010  80.3634 279.7472 15.08843554 83574,6917.87,95.437,540.433,539.036,0.0
51996.0,STARLINK-3538,PAYLOAD,2023-09-02 05:58:43,15.08849906,0.0001537,53.217,186.6502,87.2495,272.8673,0.00017284,2.465e-05,0.0,0 STARLINK-3538,1 51996U 22025AS  23245.24911848  .00002465  00000-0  17284-3 0  9996,2 51996  53.2170 186.6502 0001537  87.2495 272.8673 15.08849906 83634,6917.85,95.437,540.778,538.652,0.0
51996.0,STARLINK-3538,PAYLOAD,2023-09-02 20:17:12,15.08840865,0.0002615,53.2169,183.9741,94.468,265.6611,8.0434e-05,9.92e-06,0.0,0 STARLINK-3538,1 51996U 22025AS  23245.84528928  .00000992  00000-0  80434-4 0  9996,2 51996  53.2169 183.9741 0002615  94.4680 265.6611 15.08840865 82200,6917.878,95.437,541.552,537.934,0.0
51996.0,STARLINK-3538,PAYLOAD,2023-09-03 02:38:45,15.08840724,0.0001299,53.217,182.7855,91.1428,268.9713,4.9494e-05,5e-06,0.0,0 STARLINK-3538,1 51996U 22025AS  23246.11024898  .00000500  00000-0  49494-4 0  9990,2 51996  53.2170 182.7855 0001299  91.1428 268.9713 15.08840724 83761,6917.878,95.438,540.642,538.845,0.0
51996.0,STARLINK-3538,PAYLOAD,2023-09-03 05:49:31,15.08842834,0.000133,53.2171,182.1892,94.1395,265.975,7.7644e-05,9.48e-06,0.0,0 STARLINK-3538,1 51996U 22025AS  23246.24272733  .00000948  00000-0  77644-4 0  9991,2 51996  53.2171 182.1892 0001330  94.1395 265.9750 15.08842834 82265,6917.872,95.437,540.657,538.817,0.0
51996.0,STARLINK-3538,PAYLOAD,2023-09-04 02:29:33,15.08834875,0.0001524,53.2175,178.3257,89.753,270.3636,-0.00010355,-1.935e-05,0.0,0 STARLINK-3538,1 51996U 22025AS  23247.10386113 -.00001935  00000-0 -10355-3 0  9999,2 51996  53.2175 178.3257 0001524  89.7530 270.3636 15.08834875 83919,6917.896,95.438,540.815,538.707,0.0
51996.0,STARLINK-3538,PAYLOAD,2023-09-04 12:01:52,15.08829597,0.0001092,53.2172,176.5388,94.8382,265.2735,7.9705e-05,9.81e-06,0.0,0 STARLINK-3538,1 51996U 22025AS  23247.50129924  .00000981  00000-0  79705-4 0  9991,2 51996  53.2172 176.5388 0001092  94.8382 265.2735 15.08829597 82459,6917.912,95.438,540.533,539.022,0.0
51996.0,STARLINK-3538,PAYLOAD,2023-09-05 03:55:45,15.08816972,0.0001227,53.2171,173.565,89.6556,270.4577,-0.00011649,-2.14e-05,0.0,0 STARLINK-3538,1 51996U 22025AS  23248.16372241 -.00002140  00000-0 -11649-3 0  9999,2 51996  53.2171 173.5650 0001227  89.6556 270.4577 15.08816972 84077,6917.951,95.439,540.665,538.967,0.0
51996.0,STARLINK-3538,PAYLOAD,2023-09-06 02:11:08,15.08835681,0.0001032,53.2173,169.4048,102.936,257.1748,0.00012783,1.747e-05,0.0,0 STARLINK-3538,1 51996U 22025AS  23249.09106826  .00001747  00000-0  12783-3 0  9996,2 51996  53.2173 169.4048 0001032 102.9360 257.1748 15.08835681 84216,6917.894,95.438,540.473,539.045,0.0
